OBJECT_NAME,OBJECT_ID,EPOCH,MEAN_MOTION,ECCENTRICITY,INCLINATION,RA_OF_ASC_NODE,ARG_OF_PERICENTER,MEAN_ANOMALY,EPHEMERIS_TYPE,CLASSIFICATION_TYPE,NORAD_CAT_ID,ELEMENT_SET_NO,REV_AT_EPOCH,BSTAR,MEAN_MOTION_DOT,MEAN_MOTION_DDOT
QIANFAN-183,2026-125A,2026-07-04T18:57:39.706560,14.08709061,.00192123,88.9946,278.4578,113.4944,246.8261,0,U,69401,999,419,-.11520613E+1,-.1853939E-1,0
QIANFAN-184,2026-125B,2026-07-04T03:25:27.955488,14.16890389,.00166715,88.9955,278.5277,118.0116,242.2761,0,U,69402,999,410,.45747764E-4,.106E-5,0
QIANFAN-185,2026-125C,2026-07-04T13:49:19.607232,14.09220811,.00219708,88.9949,278.4809,109.7455,250.6101,0,U,69403,999,416,-.11279759E+1,-.1834428E-1,0
QIANFAN-186,2026-125D,2026-07-04T15:02:23.788608,14.10534494,.00209363,88.9951,278.4729,106.1152,254.2340,0,U,69404,999,417,-.1153097E+1,-.1914611E-1,0
QIANFAN-187,2026-125E,2026-07-04T18:07:03.568224,14.11396722,.00218054,88.9949,278.4520,112.2965,248.0536,0,U,69405,999,419,-.11094818E+1,-.1874578E-1,0
QIANFAN-188,2026-125F,2026-07-04T04:11:13.758720,14.19444320,.00165612,88.9955,278.5136,123.4275,236.8501,0,U,69406,999,411,.5484035E-4,.13E-5,0
QIANFAN-189,2026-125G,2026-07-03T16:29:31.380000,14.13027428,.001754,88.9950,278.5711,134.4028,225.8598,0,U,69407,999,404,-.10288E+1,-.1775348E-1,0
QIANFAN-190,2026-125H,2026-07-04T09:17:13.915968,14.12749815,.00200856,88.9949,278.4900,118.4366,241.8847,0,U,69408,999,414,-.10874127E+1,-.1882273E-1,0
QIANFAN-191,2026-125J,2026-07-04T02:10:48.337536,14.14461019,.00168643,88.9945,278.5198,126.5483,233.7260,0,U,69409,999,410,-.10487418E+1,-.1873053E-1,0
QIANFAN-192,2026-125K,2026-07-04T15:34:26.644800,14.14176089,.00173077,88.9945,278.4548,121.1140,239.1748,0,U,69410,999,418,-.11108965E+1,-.1966835E-1,0
QIANFAN-193,2026-125L,2026-07-04T13:40:45.851232,14.13987440,.00188801,88.9949,278.4616,122.2251,238.0769,0,U,69411,999,417,-.10173788E+1,-.1786384E-1,0
QIANFAN-194,2026-125M,2026-07-04T08:27:07.995168,14.21408413,.00160877,88.9955,278.4846,125.0057,235.2646,0,U,69412,999,413,.56233162E-4,.138E-5,0
QIANFAN-195,2026-125N,2026-07-04T15:04:52.648896,14.14954465,.00172617,88.9949,278.4520,131.9186,228.3477,0,U,69413,999,418,-.10595445E+1,-.1907337E-1,0
QIANFAN-196,2026-125P,2026-07-04T19:59:19.851360,14.15042843,.00170594,88.9944,278.4267,130.7510,229.5161,0,U,69414,999,421,-.1032612E+1,-.1864824E-1,0
QIANFAN-197,2026-125Q,2026-07-04T01:14:07.609344,14.17361276,.00149107,88.9949,278.5142,145.1308,215.0861,0,U,69415,999,409,-.9864769E+0,-.1859601E-1,0
QIANFAN-198,2026-125R,2026-07-04T09:53:34.906848,14.15267243,.00169598,88.9950,278.4752,133.0385,227.2226,0,U,69416,999,415,-.10439996E+1,-.189131E-1,0
QIANFAN-199,2026-125S,2026-07-04T07:43:22.327680,14.19080547,.00192117,88.9943,278.4789,131.4897,228.7945,0,U,69417,999,414,-.99001596E+0,-.1923848E-1,0
QIANFAN-200,2026-125T,2026-07-04T07:25:06.382560,14.14151271,.00175824,88.9947,278.4966,125.2996,234.9839,0,U,69418,999,413,-.11351022E+1,-.2005905E-1,0
CZ-8 R/B,2026-125U,2026-07-04T20:26:51.166176,14.39873180,.00689499,88.9976,278.3354,23.8782,336.5591,0,U,69419,999,426,.53318987E-4,.188E-5,0
STARLINK-37537,2026-126A,2026-07-05T05:10:16.564800,15.75132976,.00008397,97.2840,47.0755,96.9716,263.1645,0,U,69420,999,558,.10675348E-2,.161751E-2,0
STARLINK-37585,2026-126B,2026-07-05T04:55:00.139008,15.75347364,.00015333,97.2839,47.0918,16.3411,343.7903,0,U,69421,999,558,.18571952E-2,.288401E-2,0
STARLINK-37573,2026-126C,2026-07-05T05:14:49.598304,15.75202424,.00027038,97.2845,47.0722,33.3979,326.7456,0,U,69422,999,558,.11347808E-2,.172705E-2,0
STARLINK-37820,2026-126D,2026-07-05T05:36:10.430784,15.75135631,.00014228,97.2851,47.2063,77.0051,283.1373,0,U,69423,999,559,.37641607E-3,.56253E-3,0
STARLINK-37822,2026-126E,2026-07-04T20:50:39.136128,15.75348968,.00009338,97.2841,46.7835,256.8678,103.2483,0,U,69424,999,553,.26347128E-2,.415456E-2,0
STARLINK-37836,2026-126F,2026-07-05T05:32:06.965952,15.75153125,.00032551,97.2855,47.2102,38.3184,321.8312,0,U,69425,999,559,.50277334E-3,.75424E-3,0
STARLINK-37850,2026-126G,2026-07-05T04:07:43.942368,15.75050072,.00008107,97.2855,47.1370,73.1649,286.9705,0,U,69426,999,563,.15973497E-2,.243574E-2,0
STARLINK-37823,2026-126H,2026-07-04T20:59:48.161472,15.75423363,.0002109,97.2824,46.7749,128.3995,231.7460,0,U,69427,999,553,.27604688E-2,.437828E-2,0
STARLINK-37834,2026-126J,2026-07-05T03:17:57.566112,15.75179387,.00013782,97.2832,47.0290,50.0251,310.1135,0,U,69428,999,557,.17736833E-2,.272935E-2,0
STARLINK-37857,2026-126K,2026-07-05T03:01:39.315936,15.75220701,.00011964,97.2837,47.0462,93.8639,266.2763,0,U,69429,999,557,.77857428E-3,.117769E-2,0
STARLINK-37866,2026-126L,2026-07-05T07:00:33.016320,15.75160186,.00019248,97.2847,47.2796,58.7992,301.3462,0,U,69430,999,565,.11056725E-2,.167857E-2,0
