QIANFAN-183             
1 69401U 26125A   26185.79004290 -.01853939  00000+0 -11521+1 0  9998
2 69401  88.9946 278.4578 0019212 113.4944 246.8261 14.08709061  4197
QIANFAN-184             
1 69402U 26125B   26185.14268467  .00000106  00000+0  45748-4 0  9995
2 69402  88.9955 278.5277 0016671 118.0116 242.2761 14.16890389  4102
QIANFAN-185             
1 69403U 26125C   26185.57592138 -.01834428  00000+0 -11280+1 0  9993
2 69403  88.9949 278.4809 0021970 109.7455 250.6101 14.09220811  4163
QIANFAN-186             
1 69404U 26125D   26185.62666422 -.01914611  00000+0 -11531+1 0  9990
2 69404  88.9951 278.4729 0020936 106.1152 254.2340 14.10534494  4177
QIANFAN-187             
1 69405U 26125E   26185.75490241 -.01874578  00000+0 -11095+1 0  9991
2 69405  88.9949 278.4520 0021805 112.2965 248.0536 14.11396722  4191
QIANFAN-188             
1 69406U 26125F   26185.17446480  .00000130  00000+0  54840-4 0  9995
2 69406  88.9955 278.5136 0016561 123.4275 236.8501 14.19444320  4119
QIANFAN-189             
1 69407U 26125G   26184.68716875 -.01775348  00000+0 -10288+1 0  9996
2 69407  88.9950 278.5711 0017540 134.4028 225.8598 14.13027428  4046
QIANFAN-190             
1 69408U 26125H   26185.38696662 -.01882273  00000+0 -10874+1 0  9993
2 69408  88.9949 278.4900 0020085 118.4366 241.8847 14.12749815  4145
QIANFAN-191             
1 69409U 26125J   26185.09083724 -.01873053  00000+0 -10487+1 0  9997
2 69409  88.9945 278.5198 0016864 126.5483 233.7260 14.14461019  4106
QIANFAN-192             
1 69410U 26125K   26185.64891950 -.01966835  00000+0 -11109+1 0  9991
2 69410  88.9945 278.4548 0017307 121.1140 239.1748 14.14176089  4189
QIANFAN-193             
1 69411U 26125L   26185.56997513 -.01786384  00000+0 -10174+1 0  9995
2 69411  88.9949 278.4616 0018880 122.2251 238.0769 14.13987440  4172
QIANFAN-194             
1 69412U 26125M   26185.35217587  .00000138  00000+0  56233-4 0  9992
2 69412  88.9955 278.4846 0016087 125.0057 235.2646 14.21408413  4133
QIANFAN-195             
1 69413U 26125N   26185.62838714 -.01907337  00000+0 -10595+1 0  9991
2 69413  88.9949 278.4520 0017261 131.9186 228.3477 14.14954465  4185
QIANFAN-196             
1 69414U 26125P   26185.83286865 -.01864824  00000+0 -10326+1 0  9994
2 69414  88.9944 278.4267 0017059 130.7510 229.5161 14.15042843  4218
QIANFAN-197             
1 69415U 26125Q   26185.05147696 -.01859601  00000+0 -98648+0 0  9996
2 69415  88.9949 278.5142 0014910 145.1308 215.0861 14.17361276  4094
QIANFAN-198             
1 69416U 26125R   26185.41220957 -.01891310  00000+0 -10440+1 0  9997
2 69416  88.9950 278.4752 0016959 133.0385 227.2226 14.15267243  4153
QIANFAN-199             
1 69417U 26125S   26185.32178620 -.01923848  00000+0 -99002+0 0  9999
2 69417  88.9943 278.4789 0019211 131.4897 228.7945 14.19080547  4147
QIANFAN-200             
1 69418U 26125T   26185.30910165 -.02005905  00000+0 -11351+1 0  9994
2 69418  88.9947 278.4966 0017582 125.2996 234.9839 14.14151271  4137
CZ-8 R/B                
1 69419U 26125U   26185.85198109  .00000188  00000+0  53319-4 0  9999
2 69419  88.9976 278.3354 0068949  23.8782 336.5591 14.39873180  4264
STARLINK-37537          
1 69420U 26126A   26186.21546950  .00161751  00000+0  10675-2 0  9994
2 69420  97.2840  47.0755 0000839  96.9716 263.1645 15.75132976  5580
STARLINK-37585          
1 69421U 26126B   26186.20486272  .00288401  00000+0  18572-2 0  9990
2 69421  97.2839  47.0918 0001533  16.3411 343.7903 15.75347364  5581
STARLINK-37573          
1 69422U 26126C   26186.21862961  .00172705  00000+0  11348-2 0  9998
2 69422  97.2845  47.0722 0002703  33.3979 326.7456 15.75202424  5581
STARLINK-37820          
1 69423U 26126D   26186.23345406  .00056253  00000+0  37642-3 0  9996
2 69423  97.2851  47.2063 0001422  77.0051 283.1373 15.75135631  5592
STARLINK-37822          
1 69424U 26126E   26185.86850852  .00415456  00000+0  26347-2 0  9994
2 69424  97.2841  46.7835 0000933 256.8678 103.2483 15.75348968  5538
STARLINK-37836          
1 69425U 26126F   26186.23063618  .00075424  00000+0  50277-3 0  9990
2 69425  97.2855  47.2102 0003255  38.3184 321.8312 15.75153125  5596
STARLINK-37850          
1 69426U 26126G   26186.17203637  .00243574  00000+0  15973-2 0  9997
2 69426  97.2855  47.1370 0000810  73.1649 286.9705 15.75050072  5639
STARLINK-37823          
1 69427U 26126H   26185.87486298  .00437828  00000+0  27605-2 0  9992
2 69427  97.2824  46.7749 0002109 128.3995 231.7460 15.75423363  5533
STARLINK-37834          
1 69428U 26126J   26186.13747183  .00272935  00000+0  17737-2 0  9997
2 69428  97.2832  47.0290 0001378  50.0251 310.1135 15.75179387  5570
STARLINK-37857          
1 69429U 26126K   26186.12614949  .00117769  00000+0  77857-3 0  9993
2 69429  97.2837  47.0462 0001196  93.8639 266.2763 15.75220701  5575
STARLINK-37866          
1 69430U 26126L   26186.29204880  .00167857  00000+0  11057-2 0  9994
2 69430  97.2847  47.2796 0001924  58.7992 301.3462 15.75160186  5657
